GORIZONT 1 [-]          
1 11158U 78118A   22212.43369391 -.00000047  00000+0  00000+0 0  9998
2 11158  11.0900 203.7137 3473555 283.5479  40.4105  1.00302970108737
GORIZONT 2 [-]          
1 11440U 79062A   22212.32271701  .00000055  00000+0  00000+0 0  9994
2 11440   9.1856 301.3359 0002554 228.4591 315.0260  1.00270643123817
GORIZONT 3 [-]          
1 11648U 79105A   22212.33382584  .00000102  00000+0  00000+0 0  9998
2 11648   9.3447 302.7654 0014157 209.5815 328.2172  1.00326682108275
GORIZONT 4 [-]          
1 11841U 80049A   22212.02726035  .00000050  00000+0  00000+0 0  9993
2 11841  10.4942 308.5191 0001293 161.8227 277.7993  0.98627349219549
GORIZONT 5 [-]          
1 13092U 82020A   22211.63799241 -.00000201  00000+0  00000+0 0  9998
2 13092  11.4839 313.7991 0034445 210.3178 150.1113  0.98533525107637
GORIZONT 6 [-]          
1 13624U 82103A   22212.52591418  .00000096  00000+0  00000+0 0  9997
2 13624  10.4016 313.8215 0003264 170.5882 202.1102  1.00270192106747
GORIZONT 7 [-]          
1 14160U 83066A   22212.29411382 -.00000071  00000+0  00000+0 0  9991
2 14160  12.0565 323.1283 0008145 314.8965 242.0675  0.98347374140814
GORIZONT 8 [-]          
1 14532U 83118A   22212.05756025 -.00000180  00000+0  00000+0 0  9993
2 14532  12.2286 324.9754 0031064 148.7121 214.0497  0.98271576106582
GORIZONT 9 [-]          
1 14940U 84041A   22212.30396286 -.00000218  00000+0  00000+0 0  9991
2 14940  11.4212 323.0216 0004853 198.6762 346.4120  1.00235514107736
GORIZONT 10 [-]         
1 15144U 84078A   22212.47447140  .00000118  00000+0  00000+0 0  9990
2 15144  11.5141 324.0458 0001714 132.9818 236.2716  1.00196375140375
GORIZONT 11 [-]         
1 15484U 85007A   22211.91826309 -.00000106  00000+0  00000+0 0  9994
2 15484  11.6945 326.0219 0005283 147.7205 238.6854  1.00395001138420
GORIZONT 12 [-]         
1 16769U 86044A   22212.35996993 -.00000083  00000+0  00000+0 0  9993
2 16769  12.3050 331.3734 0002025 168.7167  13.7901  1.00196672133056
GORIZONT 13 [-]         
1 17083U 86090A   22212.33426722 -.00000109  00000+0  00000+0 0  9999
2 17083  14.1732 338.5188 0011990 344.5337  44.7550  0.96726291104961
GORIZONT 14 [-]         
1 17969U 87040A   22212.33419101 -.00000092  00000+0  00000+0 0  9992
2 17969  13.1302 329.9468 0032677 171.4977 223.5209  0.97658813106014
GORIZONT 15 [-]         
1 19017U 88028A   22211.94285792 -.00000043  00000+0  00000+0 0  9994
2 19017  14.4570 341.3609 0038198 153.7181 208.5213  0.97827829105641
GORIZONT 16 [-]         
1 19397U 88071A   22212.22827253 -.00000292  00000+0  00000+0 0  9995
2 19397  13.3089 340.0461 0015060  68.1312 293.6899  0.99979712124079
GORIZONT 17 [-]         
1 19765U 89004A   22212.39786894 -.00000029  00000+0  00000+0 0  9992
2 19765  13.8498 343.3812 0024902 130.8883 244.6504  0.99064112121534
GORIZONT 18 [-]         
1 20107U 89052A   22212.45572459 -.00000013  00000+0  00000+0 0  9997
2 20107  13.8912 344.6429 0032558 318.5935  67.9968  0.99397700120333
GORIZONT 19 [-]         
1 20263U 89081A   22212.49769653  .00000103  00000+0  00000+0 0  9999
2 20263  13.6217 343.8367 0003740 179.9334  11.2469  1.00328284 33130
GORIZONT 20 [-]         
1 20659U 90054A   22212.36415553 -.00000292  00000+0  00000+0 0  9993
2 20659  14.0539 346.6670 0007305 158.9303  31.0145  1.00283161117489
GORIZONT 21 [-]         
1 20923U 90094A   22212.45614657 -.00000148  00000+0  00000+0 0  9997
2 20923  14.0657 347.4368 0004987 185.2730 199.6110  1.00388406116230
GORIZONT 22 [-]         
1 20953U 90102A   22210.86355188 -.00000291  00000+0  00000+0 0  9993
2 20953  14.0251 347.8170 0003015  44.2982   5.8051  1.00289568116187
GORIZONT 23 [-]         
1 21533U 91046A   22212.36555074 -.00000106  00000+0  00000+0 0  9994
2 21533  14.7773 351.9410 0001967 338.2298 214.0334  0.98907397 32673
GORIZONT 24 [-]         
1 21759U 91074A   22212.49303756 -.00000021  00000+0  00000+0 0  9993
2 21759  14.9286 353.8371 0017075 219.6427 141.0883  0.98442720111012
GORIZONT 25 [-]         
1 21922U 92017A   22212.49944053  .00000099  00000+0  00000+0 0  9998
2 21922  14.4718 353.1764 0030259  82.6520 108.2499  0.99843947110798
GORIZONT 26 [-]         
1 22041U 92043A   22212.19618779 -.00000263  00000+0  00000+0 0  9994
2 22041  14.6387 355.1737 0029573 230.9279 126.4824  0.99246251109408
GORIZONT 27 [-]         
1 22245U 92082A   22212.36310913 -.00000223  00000+0  00000+0 0  9997
2 22245  14.5560 354.7764 0011821  18.3596 157.3652  1.00143033112928
GORIZONT 28 [-]         
1 22880U 93069A   22212.32988578 -.00000192  00000+0  00000+0 0  9997
2 22880  14.6895 358.6306 0036000 130.2094 223.2067  0.99650266105005
GORIZONT 29 [-]         
1 22907U 93072A   22212.13207132  .00000037  00000+0  00000+0 0  9997
2 22907  14.6024 358.1002 0009022 356.4092  13.6218  1.00153592104989
GORIZONT 30 [-]         
1 23108U 94030A   22212.27838980 -.00000269  00000+0  00000+0 0  9990
2 23108  14.6137 359.0081 0003070 131.4248  61.5598  1.00291466103251
GORIZONT 31 [-]         
1 23775U 96005A   22212.40126975 -.00000215  00000+0  00000+0 0  9994
2 23775  14.5125   5.2034 0018266 196.2847 174.6667  0.99886479 96909
GORIZONT 32 [-]         
1 23880U 96034A   22212.49168333  .00000070  00000+0  00000+0 0  9994
2 23880  14.4598   5.7234 0008258   2.7613 343.1703  1.00154465 95839
GORIZONT 33 [-]         
1 26372U 00029A   22212.27479980 -.00000260  00000+0  00000+0 0  9993
2 26372  13.1525  16.8793 0004974  94.3289 259.2993  1.00324871 81219
